[{"OBJECT_NAME":"STARLINK-31181","OBJECT_ID":"2024-005U","EPOCH":"2026-03-09T08:57:15.242976","MEAN_MOTION":15.27582211,"ECCENTRICITY":0.0002025,"INCLINATION":43.0097,"RA_OF_ASC_NODE":69.3095,"ARG_OF_PERICENTER":287.65,"MEAN_ANOMALY":72.413,"EPHEMERIS_TYPE":0,"CLASSIFICATION_TYPE":"U","NORAD_CAT_ID":58746,"ELEMENT_SET_NO":999,"REV_AT_EPOCH":12223,"BSTAR":-2.6716241e-5,"MEAN_MOTION_DOT":-9.98e-6,"MEAN_MOTION_DDOT":0},{"OBJECT_NAME":"TRANSPORTER-12 OBJECT BA","OBJECT_ID":"2025-009BA","EPOCH":"2026-03-09T16:49:42.568896","MEAN_MOTION":15.27214003,"ECCENTRICITY":4.03e-5,"INCLINATION":97.3985,"RA_OF_ASC_NODE":151.139,"ARG_OF_PERICENTER":234.6623,"MEAN_ANOMALY":125.4579,"EPHEMERIS_TYPE":0,"CLASSIFICATION_TYPE":"U","NORAD_CAT_ID":62657,"ELEMENT_SET_NO":999,"REV_AT_EPOCH":6373,"BSTAR":0.00042732654,"MEAN_MOTION_DOT":0.0001133,"MEAN_MOTION_DDOT":0}]
